{
  "type": "FeatureCollection",
  "crs": {
    "type": "name",
    "properties": {
      "name": "urn:ogc:def:crs:OGC:1.3:CRS84"
    }
  },
  "features": [
    {
      "type": "Feature",
      "geometry": {
        "type": "Polygon",
        "coordinates": [
          [
            [
              77.21600000000001,
              28.6036
            ],
            [
              77.2176,
              28.6036
            ],
            [
              77.2176,
              28.6052
            ],
            [
              77.21600000000001,
              28.6052
            ],
            [
              77.21600000000001,
              28.6036
            ]
          ]
        ]
      },
      "properties": {
        "changeId": "2dee53d58c46461cb652dc8872105386",
        "tileId": "S2_20240320_T3",
        "changeType": "Construction",
        "confidence": 0.99,
        "timestampT1": "2024-01-10T10:30:00Z",
        "timestampT2": "2024-03-20T10:30:00Z",
        "earliestObservation": "2024-03-20T10:30:00Z",
        "areaSqMeters": 27750.256063785877,
        "affectedPixels": 256,
        "processingNotes": "New structural signature: dNDBI=1.163, dGrad=0.055, CVA magnitude=0.626 | runner-up: Clearance=0.98",
        "confirmedByAnalyst": false,
        "rejectedByAnalyst": false,
        "analystNotes": "",
        "provenance": {
          "prov:wasGeneratedBy": "GeoSemanticSat-Engine-1.0.0-PROV",
          "prov:generatedAtTime": "2026-09-06T08:24:34Z",
          "prov:primarySource": "S2_20240320_T3"
        },
        "DeltaNDVI": -1.1879,
        "DeltaNDBI": 1.1635,
        "DeltaNDWI": 0.7663,
        "DeltaBSI": 1.055,
        "DeltaGradient": 0.055,
        "CvaMagnitude": 0.6259,
        "CvaTrajectoryRadians": 2.3567,
        "SceneDriftNDVI": -0.0232,
        "SceneDriftNDBI": 0.0304,
        "SceneDriftNDWI": 0.0338,
        "SceneDriftBSI": 0.0333,
        "MNDWI_T1": 0.0909,
        "MNDWI_T2": -0.3793
      }
    },
    {
      "type": "Feature",
      "geometry": {
        "type": "Polygon",
        "coordinates": [
          [
            [
              77.2176,
              28.6036
            ],
            [
              77.2192,
              28.6036
            ],
            [
              77.2192,
              28.6052
            ],
            [
              77.2176,
              28.6052
            ],
            [
              77.2176,
              28.6036
            ]
          ]
        ]
      },
      "properties": {
        "changeId": "4124e084f17648d5818c67d808842bd3",
        "tileId": "S2_20240320_T3",
        "changeType": "Construction",
        "confidence": 0.99,
        "timestampT1": "2024-01-10T10:30:00Z",
        "timestampT2": "2024-03-20T10:30:00Z",
        "earliestObservation": "2024-03-20T10:30:00Z",
        "areaSqMeters": 27750.256063785877,
        "affectedPixels": 256,
        "processingNotes": "New structural signature: dNDBI=1.163, dGrad=0.000, CVA magnitude=0.626 | runner-up: Clearance=0.98",
        "confirmedByAnalyst": false,
        "rejectedByAnalyst": false,
        "analystNotes": "",
        "provenance": {
          "prov:wasGeneratedBy": "GeoSemanticSat-Engine-1.0.0-PROV",
          "prov:generatedAtTime": "2026-09-06T08:24:34Z",
          "prov:primarySource": "S2_20240320_T3"
        },
        "DeltaNDVI": -1.1879,
        "DeltaNDBI": 1.1635,
        "DeltaNDWI": 0.7663,
        "DeltaBSI": 1.055,
        "DeltaGradient": 0,
        "CvaMagnitude": 0.6259,
        "CvaTrajectoryRadians": 2.3567,
        "SceneDriftNDVI": -0.0232,
        "SceneDriftNDBI": 0.0304,
        "SceneDriftNDWI": 0.0338,
        "SceneDriftBSI": 0.0333,
        "MNDWI_T1": 0.0909,
        "MNDWI_T2": -0.3793
      }
    },
    {
      "type": "Feature",
      "geometry": {
        "type": "Polygon",
        "coordinates": [
          [
            [
              77.2064,
              28.602
            ],
            [
              77.208,
              28.602
            ],
            [
              77.208,
              28.6036
            ],
            [
              77.2064,
              28.6036
            ],
            [
              77.2064,
              28.602
            ]
          ]
        ]
      },
      "properties": {
        "changeId": "a1f115536ddb44a5a3dd90fda4bcd0d2",
        "tileId": "S2_20240320_T3",
        "changeType": "Construction",
        "confidence": 0.99,
        "timestampT1": "2024-01-10T10:30:00Z",
        "timestampT2": "2024-03-20T10:30:00Z",
        "earliestObservation": "2024-03-20T10:30:00Z",
        "areaSqMeters": 27750.66990242907,
        "affectedPixels": 256,
        "processingNotes": "New structural signature: dNDBI=1.154, dGrad=0.000, CVA magnitude=0.812 | runner-up: Clearance=0.98",
        "confirmedByAnalyst": false,
        "rejectedByAnalyst": false,
        "analystNotes": "",
        "provenance": {
          "prov:wasGeneratedBy": "GeoSemanticSat-Engine-1.0.0-PROV",
          "prov:generatedAtTime": "2026-09-06T08:24:34Z",
          "prov:primarySource": "S2_20240320_T3"
        },
        "DeltaNDVI": -1.2087,
        "DeltaNDBI": 1.1544,
        "DeltaNDWI": 1.0145,
        "DeltaBSI": 0.7578,
        "DeltaGradient": 0,
        "CvaMagnitude": 0.8121,
        "CvaTrajectoryRadians": 2.3695,
        "SceneDriftNDVI": -0.0232,
        "SceneDriftNDBI": 0.0304,
        "SceneDriftNDWI": 0.0338,
        "SceneDriftBSI": 0.0333,
        "MNDWI_T1": 0.0909,
        "MNDWI_T2": -0.1064
      }
    },
    {
      "type": "Feature",
      "geometry": {
        "type": "Polygon",
        "coordinates": [
          [
            [
              77.208,
              28.602
            ],
            [
              77.20960000000001,
              28.602
            ],
            [
              77.20960000000001,
              28.6036
            ],
            [
              77.208,
              28.6036
            ],
            [
              77.208,
              28.602
            ]
          ]
        ]
      },
      "properties": {
        "changeId": "d734a27c1a6f46469438d1e7dc78bda0",
        "tileId": "S2_20240320_T3",
        "changeType": "Construction",
        "confidence": 0.99,
        "timestampT1": "2024-01-10T10:30:00Z",
        "timestampT2": "2024-03-20T10:30:00Z",
        "earliestObservation": "2024-03-20T10:30:00Z",
        "areaSqMeters": 27750.669902649726,
        "affectedPixels": 256,
        "processingNotes": "New structural signature: dNDBI=1.154, dGrad=0.000, CVA magnitude=0.812 | runner-up: Clearance=0.98",
        "confirmedByAnalyst": false,
        "rejectedByAnalyst": false,
        "analystNotes": "",
        "provenance": {
          "prov:wasGeneratedBy": "GeoSemanticSat-Engine-1.0.0-PROV",
          "prov:generatedAtTime": "2026-09-06T08:24:34Z",
          "prov:primarySource": "S2_20240320_T3"
        },
        "DeltaNDVI": -1.2087,
        "DeltaNDBI": 1.1544,
        "DeltaNDWI": 1.0145,
        "DeltaBSI": 0.7578,
        "DeltaGradient": 0,
        "CvaMagnitude": 0.8121,
        "CvaTrajectoryRadians": 2.3695,
        "SceneDriftNDVI": -0.0232,
        "SceneDriftNDBI": 0.0304,
        "SceneDriftNDWI": 0.0338,
        "SceneDriftBSI": 0.0333,
        "MNDWI_T1": 0.0909,
        "MNDWI_T2": -0.1064
      }
    },
    {
      "type": "Feature",
      "geometry": {
        "type": "Polygon",
        "coordinates": [
          [
            [
              77.21600000000001,
              28.602
            ],
            [
              77.2176,
              28.602
            ],
            [
              77.2176,
              28.6036
            ],
            [
              77.21600000000001,
              28.6036
            ],
            [
              77.21600000000001,
              28.602
            ]
          ]
        ]
      },
      "properties": {
        "changeId": "7759b2794cd1438a85d299d49e9ee601",
        "tileId": "S2_20240320_T3",
        "changeType": "Construction",
        "confidence": 0.99,
        "timestampT1": "2024-01-10T10:30:00Z",
        "timestampT2": "2024-03-20T10:30:00Z",
        "earliestObservation": "2024-03-20T10:30:00Z",
        "areaSqMeters": 27750.66990242907,
        "affectedPixels": 256,
        "processingNotes": "New structural signature: dNDBI=1.163, dGrad=0.107, CVA magnitude=0.626",
        "confirmedByAnalyst": false,
        "rejectedByAnalyst": false,
        "analystNotes": "",
        "provenance": {
          "prov:wasGeneratedBy": "GeoSemanticSat-Engine-1.0.0-PROV",
          "prov:generatedAtTime": "2026-09-06T08:24:34Z",
          "prov:primarySource": "S2_20240320_T3"
        },
        "DeltaNDVI": -1.1879,
        "DeltaNDBI": 1.1635,
        "DeltaNDWI": 0.7663,
        "DeltaBSI": 1.055,
        "DeltaGradient": 0.1068,
        "CvaMagnitude": 0.6259,
        "CvaTrajectoryRadians": 2.3567,
        "SceneDriftNDVI": -0.0232,
        "SceneDriftNDBI": 0.0304,
        "SceneDriftNDWI": 0.0338,
        "SceneDriftBSI": 0.0333,
        "MNDWI_T1": 0.0909,
        "MNDWI_T2": -0.3793
      }
    },
    {
      "type": "Feature",
      "geometry": {
        "type": "Polygon",
        "coordinates": [
          [
            [
              77.2176,
              28.602
            ],
            [
              77.2192,
              28.602
            ],
            [
              77.2192,
              28.6036
            ],
            [
              77.2176,
              28.6036
            ],
            [
              77.2176,
              28.602
            ]
          ]
        ]
      },
      "properties": {
        "changeId": "49388eae65a342fdb4358dd53f1fcf32",
        "tileId": "S2_20240320_T3",
        "changeType": "Construction",
        "confidence": 0.99,
        "timestampT1": "2024-01-10T10:30:00Z",
        "timestampT2": "2024-03-20T10:30:00Z",
        "earliestObservation": "2024-03-20T10:30:00Z",
        "areaSqMeters": 27750.66990242907,
        "affectedPixels": 256,
        "processingNotes": "New structural signature: dNDBI=1.163, dGrad=0.055, CVA magnitude=0.626 | runner-up: Clearance=0.98",
        "confirmedByAnalyst": false,
        "rejectedByAnalyst": false,
        "analystNotes": "",
        "provenance": {
          "prov:wasGeneratedBy": "GeoSemanticSat-Engine-1.0.0-PROV",
          "prov:generatedAtTime": "2026-09-06T08:24:34Z",
          "prov:primarySource": "S2_20240320_T3"
        },
        "DeltaNDVI": -1.1879,
        "DeltaNDBI": 1.1635,
        "DeltaNDWI": 0.7663,
        "DeltaBSI": 1.055,
        "DeltaGradient": 0.055,
        "CvaMagnitude": 0.6259,
        "CvaTrajectoryRadians": 2.3567,
        "SceneDriftNDVI": -0.0232,
        "SceneDriftNDBI": 0.0304,
        "SceneDriftNDWI": 0.0338,
        "SceneDriftBSI": 0.0333,
        "MNDWI_T1": 0.0909,
        "MNDWI_T2": -0.3793
      }
    },
    {
      "type": "Feature",
      "geometry": {
        "type": "Polygon",
        "coordinates": [
          [
            [
              77.2064,
              28.6004
            ],
            [
              77.208,
              28.6004
            ],
            [
              77.208,
              28.602
            ],
            [
              77.2064,
              28.602
            ],
            [
              77.2064,
              28.6004
            ]
          ]
        ]
      },
      "properties": {
        "changeId": "db46808859f84c9a8ca7b7f817d0a21e",
        "tileId": "S2_20240320_T3",
        "changeType": "Construction",
        "confidence": 0.99,
        "timestampT1": "2024-01-10T10:30:00Z",
        "timestampT2": "2024-03-20T10:30:00Z",
        "earliestObservation": "2024-03-20T10:30:00Z",
        "areaSqMeters": 27751.083719273724,
        "affectedPixels": 256,
        "processingNotes": "New structural signature: dNDBI=1.154, dGrad=0.000, CVA magnitude=0.812 | runner-up: Clearance=0.98",
        "confirmedByAnalyst": false,
        "rejectedByAnalyst": false,
        "analystNotes": "",
        "provenance": {
          "prov:wasGeneratedBy": "GeoSemanticSat-Engine-1.0.0-PROV",
          "prov:generatedAtTime": "2026-09-06T08:24:34Z",
          "prov:primarySource": "S2_20240320_T3"
        },
        "DeltaNDVI": -1.2087,
        "DeltaNDBI": 1.1544,
        "DeltaNDWI": 1.0145,
        "DeltaBSI": 0.7578,
        "DeltaGradient": 0,
        "CvaMagnitude": 0.8121,
        "CvaTrajectoryRadians": 2.3695,
        "SceneDriftNDVI": -0.0232,
        "SceneDriftNDBI": 0.0304,
        "SceneDriftNDWI": 0.0338,
        "SceneDriftBSI": 0.0333,
        "MNDWI_T1": 0.0909,
        "MNDWI_T2": -0.1064
      }
    },
    {
      "type": "Feature",
      "geometry": {
        "type": "Polygon",
        "coordinates": [
          [
            [
              77.208,
              28.6004
            ],
            [
              77.20960000000001,
              28.6004
            ],
            [
              77.20960000000001,
              28.602
            ],
            [
              77.208,
              28.602
            ],
            [
              77.208,
              28.6004
            ]
          ]
        ]
      },
      "properties": {
        "changeId": "09d81bf44f0d400f957cdadf0b6add81",
        "tileId": "S2_20240320_T3",
        "changeType": "Construction",
        "confidence": 0.99,
        "timestampT1": "2024-01-10T10:30:00Z",
        "timestampT2": "2024-03-20T10:30:00Z",
        "earliestObservation": "2024-03-20T10:30:00Z",
        "areaSqMeters": 27751.08371949438,
        "affectedPixels": 256,
        "processingNotes": "New structural signature: dNDBI=1.154, dGrad=0.000, CVA magnitude=0.812 | runner-up: Clearance=0.98",
        "confirmedByAnalyst": false,
        "rejectedByAnalyst": false,
        "analystNotes": "",
        "provenance": {
          "prov:wasGeneratedBy": "GeoSemanticSat-Engine-1.0.0-PROV",
          "prov:generatedAtTime": "2026-09-06T08:24:34Z",
          "prov:primarySource": "S2_20240320_T3"
        },
        "DeltaNDVI": -1.2087,
        "DeltaNDBI": 1.1544,
        "DeltaNDWI": 1.0145,
        "DeltaBSI": 0.7578,
        "DeltaGradient": 0,
        "CvaMagnitude": 0.8121,
        "CvaTrajectoryRadians": 2.3695,
        "SceneDriftNDVI": -0.0232,
        "SceneDriftNDBI": 0.0304,
        "SceneDriftNDWI": 0.0338,
        "SceneDriftBSI": 0.0333,
        "MNDWI_T1": 0.0909,
        "MNDWI_T2": -0.1064
      }
    },
    {
      "type": "Feature",
      "geometry": {
        "type": "Polygon",
        "coordinates": [
          [
            [
              77.20320000000001,
              28.592399999999998
            ],
            [
              77.2048,
              28.592399999999998
            ],
            [
              77.2048,
              28.594
            ],
            [
              77.20320000000001,
              28.594
            ],
            [
              77.20320000000001,
              28.592399999999998
            ]
          ]
        ]
      },
      "properties": {
        "changeId": "2ea525af6bac47c9b652772bee6108ae",
        "tileId": "S2_20240320_T3",
        "changeType": "WaterExtentVariation",
        "confidence": 0.99,
        "timestampT1": "2024-01-10T10:30:00Z",
        "timestampT2": "2024-03-20T10:30:00Z",
        "earliestObservation": "2024-03-20T10:30:00Z",
        "areaSqMeters": 27753.152478430824,
        "affectedPixels": 192,
        "processingNotes": "Water expansion / inundation: dNDWI=1.566, MNDWI 0.09-\u003E0.93, CVA magnitude=0.673 | runner-up: Clearance=0.98",
        "confirmedByAnalyst": false,
        "rejectedByAnalyst": false,
        "analystNotes": "",
        "provenance": {
          "prov:wasGeneratedBy": "GeoSemanticSat-Engine-1.0.0-PROV",
          "prov:generatedAtTime": "2026-09-06T08:24:34Z",
          "prov:primarySource": "S2_20240320_T3"
        },
        "DeltaNDVI": -1.7333,
        "DeltaNDBI": 1.625,
        "DeltaNDWI": 1.5663,
        "DeltaBSI": 0.5486,
        "DeltaGradient": -0.0016,
        "CvaMagnitude": 0.6727,
        "CvaTrajectoryRadians": 2.3817,
        "SceneDriftNDVI": -0.0232,
        "SceneDriftNDBI": 0.0304,
        "SceneDriftNDWI": 0.0338,
        "SceneDriftBSI": 0.0333,
        "MNDWI_T1": 0.0909,
        "MNDWI_T2": 0.931
      }
    },
    {
      "type": "Feature",
      "geometry": {
        "type": "Polygon",
        "coordinates": [
          [
            [
              77.20320000000001,
              28.590799999999998
            ],
            [
              77.2048,
              28.590799999999998
            ],
            [
              77.2048,
              28.592399999999998
            ],
            [
              77.20320000000001,
              28.592399999999998
            ],
            [
              77.20320000000001,
              28.590799999999998
            ]
          ]
        ]
      },
      "properties": {
        "changeId": "6975007af86b457aa12d37c2a5eca10d",
        "tileId": "S2_20240320_T3",
        "changeType": "WaterExtentVariation",
        "confidence": 0.99,
        "timestampT1": "2024-01-10T10:30:00Z",
        "timestampT2": "2024-03-20T10:30:00Z",
        "earliestObservation": "2024-03-20T10:30:00Z",
        "areaSqMeters": 27753.566166989818,
        "affectedPixels": 192,
        "processingNotes": "Water expansion / inundation: dNDWI=1.566, MNDWI 0.09-\u003E0.93, CVA magnitude=0.673 | runner-up: Clearance=0.98",
        "confirmedByAnalyst": false,
        "rejectedByAnalyst": false,
        "analystNotes": "",
        "provenance": {
          "prov:wasGeneratedBy": "GeoSemanticSat-Engine-1.0.0-PROV",
          "prov:generatedAtTime": "2026-09-06T08:24:34Z",
          "prov:primarySource": "S2_20240320_T3"
        },
        "DeltaNDVI": -1.7333,
        "DeltaNDBI": 1.625,
        "DeltaNDWI": 1.5663,
        "DeltaBSI": 0.5486,
        "DeltaGradient": -0.0067,
        "CvaMagnitude": 0.6727,
        "CvaTrajectoryRadians": 2.3817,
        "SceneDriftNDVI": -0.0232,
        "SceneDriftNDBI": 0.0304,
        "SceneDriftNDWI": 0.0338,
        "SceneDriftBSI": 0.0333,
        "MNDWI_T1": 0.0909,
        "MNDWI_T2": 0.931
      }
    },
    {
      "type": "Feature",
      "geometry": {
        "type": "Polygon",
        "coordinates": [
          [
            [
              77.20320000000001,
              28.589199999999998
            ],
            [
              77.2048,
              28.589199999999998
            ],
            [
              77.2048,
              28.590799999999998
            ],
            [
              77.20320000000001,
              28.590799999999998
            ],
            [
              77.20320000000001,
              28.589199999999998
            ]
          ]
        ]
      },
      "properties": {
        "changeId": "0a93ad96317a4ad2b9a5e5c7d905b7f0",
        "tileId": "S2_20240320_T3",
        "changeType": "WaterExtentVariation",
        "confidence": 0.99,
        "timestampT1": "2024-01-10T10:30:00Z",
        "timestampT2": "2024-03-20T10:30:00Z",
        "earliestObservation": "2024-03-20T10:30:00Z",
        "areaSqMeters": 27753.97983168317,
        "affectedPixels": 192,
        "processingNotes": "Water expansion / inundation: dNDWI=0.800, MNDWI 0.09-\u003E0.51, CVA magnitude=0.366 | runner-up: Clearance=0.98",
        "confirmedByAnalyst": false,
        "rejectedByAnalyst": false,
        "analystNotes": "",
        "provenance": {
          "prov:wasGeneratedBy": "GeoSemanticSat-Engine-1.0.0-PROV",
          "prov:generatedAtTime": "2026-09-06T08:24:34Z",
          "prov:primarySource": "S2_20240320_T3"
        },
        "DeltaNDVI": -0.8783,
        "DeltaNDBI": 0.8277,
        "DeltaNDWI": 0.8,
        "DeltaBSI": 0.2909,
        "DeltaGradient": 0.0066,
        "CvaMagnitude": 0.3663,
        "CvaTrajectoryRadians": 2.3725,
        "SceneDriftNDVI": -0.0232,
        "SceneDriftNDBI": 0.0304,
        "SceneDriftNDWI": 0.0338,
        "SceneDriftBSI": 0.0333,
        "MNDWI_T1": 0.0909,
        "MNDWI_T2": 0.511
      }
    },
    {
      "type": "Feature",
      "geometry": {
        "type": "Polygon",
        "coordinates": [
          [
            [
              77.2064,
              28.6036
            ],
            [
              77.208,
              28.6036
            ],
            [
              77.208,
              28.6052
            ],
            [
              77.2064,
              28.6052
            ],
            [
              77.2064,
              28.6036
            ]
          ]
        ]
      },
      "properties": {
        "changeId": "02c15eeb302b47bf9d51c56203635914",
        "tileId": "S2_20240320_T3",
        "changeType": "WaterExtentVariation",
        "confidence": 0.886,
        "timestampT1": "2024-01-10T10:30:00Z",
        "timestampT2": "2024-03-20T10:30:00Z",
        "earliestObservation": "2024-03-20T10:30:00Z",
        "areaSqMeters": 27750.256063785877,
        "affectedPixels": 256,
        "processingNotes": "Water expansion / inundation: dNDWI=0.279, MNDWI 0.09-\u003E0.04, CVA magnitude=0.248",
        "confirmedByAnalyst": false,
        "rejectedByAnalyst": false,
        "analystNotes": "",
        "provenance": {
          "prov:wasGeneratedBy": "GeoSemanticSat-Engine-1.0.0-PROV",
          "prov:generatedAtTime": "2026-09-06T08:24:34Z",
          "prov:primarySource": "S2_20240320_T3"
        },
        "DeltaNDVI": -0.3196,
        "DeltaNDBI": 0.3114,
        "DeltaNDWI": 0.279,
        "DeltaBSI": 0.2144,
        "DeltaGradient": 0.175,
        "CvaMagnitude": 0.248,
        "CvaTrajectoryRadians": 2.3315,
        "SceneDriftNDVI": -0.0232,
        "SceneDriftNDBI": 0.0304,
        "SceneDriftNDWI": 0.0338,
        "SceneDriftBSI": 0.0333,
        "MNDWI_T1": 0.0909,
        "MNDWI_T2": 0.0416
      }
    },
    {
      "type": "Feature",
      "geometry": {
        "type": "Polygon",
        "coordinates": [
          [
            [
              77.208,
              28.6036
            ],
            [
              77.20960000000001,
              28.6036
            ],
            [
              77.20960000000001,
              28.6052
            ],
            [
              77.208,
              28.6052
            ],
            [
              77.208,
              28.6036
            ]
          ]
        ]
      },
      "properties": {
        "changeId": "fc696cfa1088491a952b4ddc0bc8cf98",
        "tileId": "S2_20240320_T3",
        "changeType": "WaterExtentVariation",
        "confidence": 0.886,
        "timestampT1": "2024-01-10T10:30:00Z",
        "timestampT2": "2024-03-20T10:30:00Z",
        "earliestObservation": "2024-03-20T10:30:00Z",
        "areaSqMeters": 27750.25606400653,
        "affectedPixels": 256,
        "processingNotes": "Water expansion / inundation: dNDWI=0.279, MNDWI 0.09-\u003E0.04, CVA magnitude=0.248",
        "confirmedByAnalyst": false,
        "rejectedByAnalyst": false,
        "analystNotes": "",
        "provenance": {
          "prov:wasGeneratedBy": "GeoSemanticSat-Engine-1.0.0-PROV",
          "prov:generatedAtTime": "2026-09-06T08:24:34Z",
          "prov:primarySource": "S2_20240320_T3"
        },
        "DeltaNDVI": -0.3196,
        "DeltaNDBI": 0.3114,
        "DeltaNDWI": 0.279,
        "DeltaBSI": 0.2144,
        "DeltaGradient": 0.175,
        "CvaMagnitude": 0.248,
        "CvaTrajectoryRadians": 2.3315,
        "SceneDriftNDVI": -0.0232,
        "SceneDriftNDBI": 0.0304,
        "SceneDriftNDWI": 0.0338,
        "SceneDriftBSI": 0.0333,
        "MNDWI_T1": 0.0909,
        "MNDWI_T2": 0.0416
      }
    },
    {
      "type": "Feature",
      "geometry": {
        "type": "Polygon",
        "coordinates": [
          [
            [
              77.2048,
              28.602
            ],
            [
              77.2064,
              28.602
            ],
            [
              77.2064,
              28.6036
            ],
            [
              77.2048,
              28.6036
            ],
            [
              77.2048,
              28.602
            ]
          ]
        ]
      },
      "properties": {
        "changeId": "c215e697c1ca4d1b865c42b674a6105e",
        "tileId": "S2_20240320_T3",
        "changeType": "WaterExtentVariation",
        "confidence": 0.886,
        "timestampT1": "2024-01-10T10:30:00Z",
        "timestampT2": "2024-03-20T10:30:00Z",
        "earliestObservation": "2024-03-20T10:30:00Z",
        "areaSqMeters": 27750.669902649726,
        "affectedPixels": 256,
        "processingNotes": "Water expansion / inundation: dNDWI=0.279, MNDWI 0.09-\u003E0.04, CVA magnitude=0.248",
        "confirmedByAnalyst": false,
        "rejectedByAnalyst": false,
        "analystNotes": "",
        "provenance": {
          "prov:wasGeneratedBy": "GeoSemanticSat-Engine-1.0.0-PROV",
          "prov:generatedAtTime": "2026-09-06T08:24:34Z",
          "prov:primarySource": "S2_20240320_T3"
        },
        "DeltaNDVI": -0.3196,
        "DeltaNDBI": 0.3114,
        "DeltaNDWI": 0.279,
        "DeltaBSI": 0.2144,
        "DeltaGradient": 0.175,
        "CvaMagnitude": 0.248,
        "CvaTrajectoryRadians": 2.3315,
        "SceneDriftNDVI": -0.0232,
        "SceneDriftNDBI": 0.0304,
        "SceneDriftNDWI": 0.0338,
        "SceneDriftBSI": 0.0333,
        "MNDWI_T1": 0.0909,
        "MNDWI_T2": 0.0416
      }
    },
    {
      "type": "Feature",
      "geometry": {
        "type": "Polygon",
        "coordinates": [
          [
            [
              77.20960000000001,
              28.602
            ],
            [
              77.2112,
              28.602
            ],
            [
              77.2112,
              28.6036
            ],
            [
              77.20960000000001,
              28.6036
            ],
            [
              77.20960000000001,
              28.602
            ]
          ]
        ]
      },
      "properties": {
        "changeId": "6ca619a3fef04e7f9c202cb4be95364f",
        "tileId": "S2_20240320_T3",
        "changeType": "WaterExtentVariation",
        "confidence": 0.886,
        "timestampT1": "2024-01-10T10:30:00Z",
        "timestampT2": "2024-03-20T10:30:00Z",
        "earliestObservation": "2024-03-20T10:30:00Z",
        "areaSqMeters": 27750.669902649726,
        "affectedPixels": 256,
        "processingNotes": "Water expansion / inundation: dNDWI=0.279, MNDWI 0.09-\u003E0.04, CVA magnitude=0.248",
        "confirmedByAnalyst": false,
        "rejectedByAnalyst": false,
        "analystNotes": "",
        "provenance": {
          "prov:wasGeneratedBy": "GeoSemanticSat-Engine-1.0.0-PROV",
          "prov:generatedAtTime": "2026-09-06T08:24:34Z",
          "prov:primarySource": "S2_20240320_T3"
        },
        "DeltaNDVI": -0.3196,
        "DeltaNDBI": 0.3114,
        "DeltaNDWI": 0.279,
        "DeltaBSI": 0.2144,
        "DeltaGradient": 0.175,
        "CvaMagnitude": 0.248,
        "CvaTrajectoryRadians": 2.3315,
        "SceneDriftNDVI": -0.0232,
        "SceneDriftNDBI": 0.0304,
        "SceneDriftNDWI": 0.0338,
        "SceneDriftBSI": 0.0333,
        "MNDWI_T1": 0.0909,
        "MNDWI_T2": 0.0416
      }
    },
    {
      "type": "Feature",
      "geometry": {
        "type": "Polygon",
        "coordinates": [
          [
            [
              77.2048,
              28.6004
            ],
            [
              77.2064,
              28.6004
            ],
            [
              77.2064,
              28.602
            ],
            [
              77.2048,
              28.602
            ],
            [
              77.2048,
              28.6004
            ]
          ]
        ]
      },
      "properties": {
        "changeId": "7dd0f8d7337a43b6842230cc7d293f6d",
        "tileId": "S2_20240320_T3",
        "changeType": "WaterExtentVariation",
        "confidence": 0.886,
        "timestampT1": "2024-01-10T10:30:00Z",
        "timestampT2": "2024-03-20T10:30:00Z",
        "earliestObservation": "2024-03-20T10:30:00Z",
        "areaSqMeters": 27751.08371949438,
        "affectedPixels": 256,
        "processingNotes": "Water expansion / inundation: dNDWI=0.279, MNDWI 0.09-\u003E0.04, CVA magnitude=0.248",
        "confirmedByAnalyst": false,
        "rejectedByAnalyst": false,
        "analystNotes": "",
        "provenance": {
          "prov:wasGeneratedBy": "GeoSemanticSat-Engine-1.0.0-PROV",
          "prov:generatedAtTime": "2026-09-06T08:24:34Z",
          "prov:primarySource": "S2_20240320_T3"
        },
        "DeltaNDVI": -0.3196,
        "DeltaNDBI": 0.3114,
        "DeltaNDWI": 0.279,
        "DeltaBSI": 0.2144,
        "DeltaGradient": 0.175,
        "CvaMagnitude": 0.248,
        "CvaTrajectoryRadians": 2.3315,
        "SceneDriftNDVI": -0.0232,
        "SceneDriftNDBI": 0.0304,
        "SceneDriftNDWI": 0.0338,
        "SceneDriftBSI": 0.0333,
        "MNDWI_T1": 0.0909,
        "MNDWI_T2": 0.0416
      }
    },
    {
      "type": "Feature",
      "geometry": {
        "type": "Polygon",
        "coordinates": [
          [
            [
              77.20960000000001,
              28.6004
            ],
            [
              77.2112,
              28.6004
            ],
            [
              77.2112,
              28.602
            ],
            [
              77.20960000000001,
              28.602
            ],
            [
              77.20960000000001,
              28.6004
            ]
          ]
        ]
      },
      "properties": {
        "changeId": "8717db5f33c3440a8d90bea04b47c148",
        "tileId": "S2_20240320_T3",
        "changeType": "WaterExtentVariation",
        "confidence": 0.886,
        "timestampT1": "2024-01-10T10:30:00Z",
        "timestampT2": "2024-03-20T10:30:00Z",
        "earliestObservation": "2024-03-20T10:30:00Z",
        "areaSqMeters": 27751.08371949438,
        "affectedPixels": 256,
        "processingNotes": "Water expansion / inundation: dNDWI=0.279, MNDWI 0.09-\u003E0.04, CVA magnitude=0.248",
        "confirmedByAnalyst": false,
        "rejectedByAnalyst": false,
        "analystNotes": "",
        "provenance": {
          "prov:wasGeneratedBy": "GeoSemanticSat-Engine-1.0.0-PROV",
          "prov:generatedAtTime": "2026-09-06T08:24:34Z",
          "prov:primarySource": "S2_20240320_T3"
        },
        "DeltaNDVI": -0.3196,
        "DeltaNDBI": 0.3114,
        "DeltaNDWI": 0.279,
        "DeltaBSI": 0.2144,
        "DeltaGradient": 0.175,
        "CvaMagnitude": 0.248,
        "CvaTrajectoryRadians": 2.3315,
        "SceneDriftNDVI": -0.0232,
        "SceneDriftNDBI": 0.0304,
        "SceneDriftNDWI": 0.0338,
        "SceneDriftBSI": 0.0333,
        "MNDWI_T1": 0.0909,
        "MNDWI_T2": 0.0416
      }
    },
    {
      "type": "Feature",
      "geometry": {
        "type": "Polygon",
        "coordinates": [
          [
            [
              77.2064,
              28.5988
            ],
            [
              77.208,
              28.5988
            ],
            [
              77.208,
              28.6004
            ],
            [
              77.2064,
              28.6004
            ],
            [
              77.2064,
              28.5988
            ]
          ]
        ]
      },
      "properties": {
        "changeId": "ef1deb0f2e5445bfa2c953275b5e2ca3",
        "tileId": "S2_20240320_T3",
        "changeType": "WaterExtentVariation",
        "confidence": 0.886,
        "timestampT1": "2024-01-10T10:30:00Z",
        "timestampT2": "2024-03-20T10:30:00Z",
        "earliestObservation": "2024-03-20T10:30:00Z",
        "areaSqMeters": 27751.497514131916,
        "affectedPixels": 256,
        "processingNotes": "Water expansion / inundation: dNDWI=0.279, MNDWI 0.09-\u003E0.04, CVA magnitude=0.248",
        "confirmedByAnalyst": false,
        "rejectedByAnalyst": false,
        "analystNotes": "",
        "provenance": {
          "prov:wasGeneratedBy": "GeoSemanticSat-Engine-1.0.0-PROV",
          "prov:generatedAtTime": "2026-09-06T08:24:34Z",
          "prov:primarySource": "S2_20240320_T3"
        },
        "DeltaNDVI": -0.3196,
        "DeltaNDBI": 0.3114,
        "DeltaNDWI": 0.279,
        "DeltaBSI": 0.2144,
        "DeltaGradient": 0.175,
        "CvaMagnitude": 0.248,
        "CvaTrajectoryRadians": 2.3315,
        "SceneDriftNDVI": -0.0232,
        "SceneDriftNDBI": 0.0304,
        "SceneDriftNDWI": 0.0338,
        "SceneDriftBSI": 0.0333,
        "MNDWI_T1": 0.0909,
        "MNDWI_T2": 0.0416
      }
    },
    {
      "type": "Feature",
      "geometry": {
        "type": "Polygon",
        "coordinates": [
          [
            [
              77.208,
              28.5988
            ],
            [
              77.20960000000001,
              28.5988
            ],
            [
              77.20960000000001,
              28.6004
            ],
            [
              77.208,
              28.6004
            ],
            [
              77.208,
              28.5988
            ]
          ]
        ]
      },
      "properties": {
        "changeId": "e535e2d737b24d9aab53fd9fa1ad65ec",
        "tileId": "S2_20240320_T3",
        "changeType": "WaterExtentVariation",
        "confidence": 0.886,
        "timestampT1": "2024-01-10T10:30:00Z",
        "timestampT2": "2024-03-20T10:30:00Z",
        "earliestObservation": "2024-03-20T10:30:00Z",
        "areaSqMeters": 27751.497514352577,
        "affectedPixels": 256,
        "processingNotes": "Water expansion / inundation: dNDWI=0.279, MNDWI 0.09-\u003E0.04, CVA magnitude=0.248",
        "confirmedByAnalyst": false,
        "rejectedByAnalyst": false,
        "analystNotes": "",
        "provenance": {
          "prov:wasGeneratedBy": "GeoSemanticSat-Engine-1.0.0-PROV",
          "prov:generatedAtTime": "2026-09-06T08:24:34Z",
          "prov:primarySource": "S2_20240320_T3"
        },
        "DeltaNDVI": -0.3196,
        "DeltaNDBI": 0.3114,
        "DeltaNDWI": 0.279,
        "DeltaBSI": 0.2144,
        "DeltaGradient": 0.175,
        "CvaMagnitude": 0.248,
        "CvaTrajectoryRadians": 2.3315,
        "SceneDriftNDVI": -0.0232,
        "SceneDriftNDBI": 0.0304,
        "SceneDriftNDWI": 0.0338,
        "SceneDriftBSI": 0.0333,
        "MNDWI_T1": 0.0909,
        "MNDWI_T2": 0.0416
      }
    },
    {
      "type": "Feature",
      "geometry": {
        "type": "Polygon",
        "coordinates": [
          [
            [
              77.2048,
              28.592399999999998
            ],
            [
              77.2064,
              28.592399999999998
            ],
            [
              77.2064,
              28.594
            ],
            [
              77.2048,
              28.594
            ],
            [
              77.2048,
              28.592399999999998
            ]
          ]
        ]
      },
      "properties": {
        "changeId": "b8fb165bc68b44399462e13cdb2d7def",
        "tileId": "S2_20240320_T3",
        "changeType": "WaterExtentVariation",
        "confidence": 0.8311,
        "timestampT1": "2024-01-10T10:30:00Z",
        "timestampT2": "2024-03-20T10:30:00Z",
        "earliestObservation": "2024-03-20T10:30:00Z",
        "areaSqMeters": 27753.152478430824,
        "affectedPixels": 256,
        "processingNotes": "Water expansion / inundation: dNDWI=0.225, MNDWI 0.09-\u003E0.20, CVA magnitude=0.137",
        "confirmedByAnalyst": false,
        "rejectedByAnalyst": false,
        "analystNotes": "",
        "provenance": {
          "prov:wasGeneratedBy": "GeoSemanticSat-Engine-1.0.0-PROV",
          "prov:generatedAtTime": "2026-09-06T08:24:34Z",
          "prov:primarySource": "S2_20240320_T3"
        },
        "DeltaNDVI": -0.237,
        "DeltaNDBI": 0.2297,
        "DeltaNDWI": 0.2254,
        "DeltaBSI": 0.0977,
        "DeltaGradient": 0.0103,
        "CvaMagnitude": 0.1366,
        "CvaTrajectoryRadians": 2.3202,
        "SceneDriftNDVI": -0.0232,
        "SceneDriftNDBI": 0.0304,
        "SceneDriftNDWI": 0.0338,
        "SceneDriftBSI": 0.0333,
        "MNDWI_T1": 0.0909,
        "MNDWI_T2": 0.1959
      }
    },
    {
      "type": "Feature",
      "geometry": {
        "type": "Polygon",
        "coordinates": [
          [
            [
              77.2048,
              28.590799999999998
            ],
            [
              77.2064,
              28.590799999999998
            ],
            [
              77.2064,
              28.592399999999998
            ],
            [
              77.2048,
              28.592399999999998
            ],
            [
              77.2048,
              28.590799999999998
            ]
          ]
        ]
      },
      "properties": {
        "changeId": "ffbe4d0334dc41999e97dcbaee2d28cd",
        "tileId": "S2_20240320_T3",
        "changeType": "WaterExtentVariation",
        "confidence": 0.8311,
        "timestampT1": "2024-01-10T10:30:00Z",
        "timestampT2": "2024-03-20T10:30:00Z",
        "earliestObservation": "2024-03-20T10:30:00Z",
        "areaSqMeters": 27753.566166989818,
        "affectedPixels": 256,
        "processingNotes": "Water expansion / inundation: dNDWI=0.225, MNDWI 0.09-\u003E0.20, CVA magnitude=0.137",
        "confirmedByAnalyst": false,
        "rejectedByAnalyst": false,
        "analystNotes": "",
        "provenance": {
          "prov:wasGeneratedBy": "GeoSemanticSat-Engine-1.0.0-PROV",
          "prov:generatedAtTime": "2026-09-06T08:24:34Z",
          "prov:primarySource": "S2_20240320_T3"
        },
        "DeltaNDVI": -0.237,
        "DeltaNDBI": 0.2297,
        "DeltaNDWI": 0.2254,
        "DeltaBSI": 0.0977,
        "DeltaGradient": 0.01,
        "CvaMagnitude": 0.1366,
        "CvaTrajectoryRadians": 2.3202,
        "SceneDriftNDVI": -0.0232,
        "SceneDriftNDBI": 0.0304,
        "SceneDriftNDWI": 0.0338,
        "SceneDriftBSI": 0.0333,
        "MNDWI_T1": 0.0909,
        "MNDWI_T2": 0.1959
      }
    }
  ]
}