{
  "type": "FeatureCollection",
  "crs": {
    "type": "name",
    "properties": {
      "name": "urn:ogc:def:crs:OGC:1.3:CRS84"
    }
  },
  "features": [
    {
      "type": "Feature",
      "geometry": {
        "type": "Polygon",
        "coordinates": [
          [
            [
              77.21600000000001,
              28.6036
            ],
            [
              77.2176,
              28.6036
            ],
            [
              77.2176,
              28.6052
            ],
            [
              77.21600000000001,
              28.6052
            ],
            [
              77.21600000000001,
              28.6036
            ]
          ]
        ]
      },
      "properties": {
        "changeId": "4f06b68902de4ecc87dce299c3b90482",
        "tileId": "S2_20240320_T3",
        "changeType": "Construction",
        "confidence": 0.99,
        "timestampT1": "2024-01-10T10.30.00Z",
        "timestampT2": "2024-03-20T10.30.00Z",
        "earliestObservation": "2024-03-20T10.30.00Z",
        "areaSqMeters": 27750.256063785877,
        "affectedPixels": 256,
        "processingNotes": "New structural signature: dNDBI=1.163, dGrad=0.055, CVA magnitude=0.626 | runner-up: Clearance=0.98",
        "confirmedByAnalyst": false,
        "rejectedByAnalyst": false,
        "analystNotes": "",
        "provenance": {
          "prov:wasGeneratedBy": "GeoSemanticSat-Engine-1.0.0-PROV",
          "prov:generatedAtTime": "2026-09-10T16.46.44Z",
          "prov:primarySource": "S2_20240320_T3"
        },
        "DeltaNDVI": -1.1879,
        "DeltaNDBI": 1.1635,
        "DeltaNDWI": 0.7663,
        "DeltaBSI": 1.055,
        "DeltaGradient": 0.055,
        "CvaMagnitude": 0.6259,
        "CvaTrajectoryRadians": 2.3567,
        "SceneDriftNDVI": -0.0232,
        "SceneDriftNDBI": 0.0304,
        "SceneDriftNDWI": 0.0338,
        "SceneDriftBSI": 0.0333,
        "MNDWI_T1": 0.0909,
        "MNDWI_T2": -0.3793
      }
    },
    {
      "type": "Feature",
      "geometry": {
        "type": "Polygon",
        "coordinates": [
          [
            [
              77.2176,
              28.6036
            ],
            [
              77.2192,
              28.6036
            ],
            [
              77.2192,
              28.6052
            ],
            [
              77.2176,
              28.6052
            ],
            [
              77.2176,
              28.6036
            ]
          ]
        ]
      },
      "properties": {
        "changeId": "b2b4447cc35a4a198ffff6e017afe249",
        "tileId": "S2_20240320_T3",
        "changeType": "Construction",
        "confidence": 0.99,
        "timestampT1": "2024-01-10T10.30.00Z",
        "timestampT2": "2024-03-20T10.30.00Z",
        "earliestObservation": "2024-03-20T10.30.00Z",
        "areaSqMeters": 27750.256063785877,
        "affectedPixels": 256,
        "processingNotes": "New structural signature: dNDBI=1.163, dGrad=0.000, CVA magnitude=0.626 | runner-up: Clearance=0.98",
        "confirmedByAnalyst": false,
        "rejectedByAnalyst": false,
        "analystNotes": "",
        "provenance": {
          "prov:wasGeneratedBy": "GeoSemanticSat-Engine-1.0.0-PROV",
          "prov:generatedAtTime": "2026-09-10T16.46.44Z",
          "prov:primarySource": "S2_20240320_T3"
        },
        "DeltaNDVI": -1.1879,
        "DeltaNDBI": 1.1635,
        "DeltaNDWI": 0.7663,
        "DeltaBSI": 1.055,
        "DeltaGradient": 0,
        "CvaMagnitude": 0.6259,
        "CvaTrajectoryRadians": 2.3567,
        "SceneDriftNDVI": -0.0232,
        "SceneDriftNDBI": 0.0304,
        "SceneDriftNDWI": 0.0338,
        "SceneDriftBSI": 0.0333,
        "MNDWI_T1": 0.0909,
        "MNDWI_T2": -0.3793
      }
    },
    {
      "type": "Feature",
      "geometry": {
        "type": "Polygon",
        "coordinates": [
          [
            [
              77.2064,
              28.602
            ],
            [
              77.208,
              28.602
            ],
            [
              77.208,
              28.6036
            ],
            [
              77.2064,
              28.6036
            ],
            [
              77.2064,
              28.602
            ]
          ]
        ]
      },
      "properties": {
        "changeId": "1a4ef3c630d7483a8054f473ee231461",
        "tileId": "S2_20240320_T3",
        "changeType": "Construction",
        "confidence": 0.99,
        "timestampT1": "2024-01-10T10.30.00Z",
        "timestampT2": "2024-03-20T10.30.00Z",
        "earliestObservation": "2024-03-20T10.30.00Z",
        "areaSqMeters": 27750.66990242907,
        "affectedPixels": 256,
        "processingNotes": "New structural signature: dNDBI=1.154, dGrad=0.000, CVA magnitude=0.812 | runner-up: Clearance=0.98",
        "confirmedByAnalyst": false,
        "rejectedByAnalyst": false,
        "analystNotes": "",
        "provenance": {
          "prov:wasGeneratedBy": "GeoSemanticSat-Engine-1.0.0-PROV",
          "prov:generatedAtTime": "2026-09-10T16.46.44Z",
          "prov:primarySource": "S2_20240320_T3"
        },
        "DeltaNDVI": -1.2087,
        "DeltaNDBI": 1.1544,
        "DeltaNDWI": 1.0145,
        "DeltaBSI": 0.7578,
        "DeltaGradient": 0,
        "CvaMagnitude": 0.8121,
        "CvaTrajectoryRadians": 2.3695,
        "SceneDriftNDVI": -0.0232,
        "SceneDriftNDBI": 0.0304,
        "SceneDriftNDWI": 0.0338,
        "SceneDriftBSI": 0.0333,
        "MNDWI_T1": 0.0909,
        "MNDWI_T2": -0.1064
      }
    },
    {
      "type": "Feature",
      "geometry": {
        "type": "Polygon",
        "coordinates": [
          [
            [
              77.208,
              28.602
            ],
            [
              77.20960000000001,
              28.602
            ],
            [
              77.20960000000001,
              28.6036
            ],
            [
              77.208,
              28.6036
            ],
            [
              77.208,
              28.602
            ]
          ]
        ]
      },
      "properties": {
        "changeId": "a0f534b9f40143f697475cf49ac2b2ef",
        "tileId": "S2_20240320_T3",
        "changeType": "Construction",
        "confidence": 0.99,
        "timestampT1": "2024-01-10T10.30.00Z",
        "timestampT2": "2024-03-20T10.30.00Z",
        "earliestObservation": "2024-03-20T10.30.00Z",
        "areaSqMeters": 27750.669902649726,
        "affectedPixels": 256,
        "processingNotes": "New structural signature: dNDBI=1.154, dGrad=0.000, CVA magnitude=0.812 | runner-up: Clearance=0.98",
        "confirmedByAnalyst": false,
        "rejectedByAnalyst": false,
        "analystNotes": "",
        "provenance": {
          "prov:wasGeneratedBy": "GeoSemanticSat-Engine-1.0.0-PROV",
          "prov:generatedAtTime": "2026-09-10T16.46.44Z",
          "prov:primarySource": "S2_20240320_T3"
        },
        "DeltaNDVI": -1.2087,
        "DeltaNDBI": 1.1544,
        "DeltaNDWI": 1.0145,
        "DeltaBSI": 0.7578,
        "DeltaGradient": 0,
        "CvaMagnitude": 0.8121,
        "CvaTrajectoryRadians": 2.3695,
        "SceneDriftNDVI": -0.0232,
        "SceneDriftNDBI": 0.0304,
        "SceneDriftNDWI": 0.0338,
        "SceneDriftBSI": 0.0333,
        "MNDWI_T1": 0.0909,
        "MNDWI_T2": -0.1064
      }
    },
    {
      "type": "Feature",
      "geometry": {
        "type": "Polygon",
        "coordinates": [
          [
            [
              77.21600000000001,
              28.602
            ],
            [
              77.2176,
              28.602
            ],
            [
              77.2176,
              28.6036
            ],
            [
              77.21600000000001,
              28.6036
            ],
            [
              77.21600000000001,
              28.602
            ]
          ]
        ]
      },
      "properties": {
        "changeId": "8961cce40d374aeca242dfc6ddac4bea",
        "tileId": "S2_20240320_T3",
        "changeType": "Construction",
        "confidence": 0.99,
        "timestampT1": "2024-01-10T10.30.00Z",
        "timestampT2": "2024-03-20T10.30.00Z",
        "earliestObservation": "2024-03-20T10.30.00Z",
        "areaSqMeters": 27750.66990242907,
        "affectedPixels": 256,
        "processingNotes": "New structural signature: dNDBI=1.163, dGrad=0.107, CVA magnitude=0.626",
        "confirmedByAnalyst": false,
        "rejectedByAnalyst": false,
        "analystNotes": "",
        "provenance": {
          "prov:wasGeneratedBy": "GeoSemanticSat-Engine-1.0.0-PROV",
          "prov:generatedAtTime": "2026-09-10T16.46.44Z",
          "prov:primarySource": "S2_20240320_T3"
        },
        "DeltaNDVI": -1.1879,
        "DeltaNDBI": 1.1635,
        "DeltaNDWI": 0.7663,
        "DeltaBSI": 1.055,
        "DeltaGradient": 0.1068,
        "CvaMagnitude": 0.6259,
        "CvaTrajectoryRadians": 2.3567,
        "SceneDriftNDVI": -0.0232,
        "SceneDriftNDBI": 0.0304,
        "SceneDriftNDWI": 0.0338,
        "SceneDriftBSI": 0.0333,
        "MNDWI_T1": 0.0909,
        "MNDWI_T2": -0.3793
      }
    },
    {
      "type": "Feature",
      "geometry": {
        "type": "Polygon",
        "coordinates": [
          [
            [
              77.2176,
              28.602
            ],
            [
              77.2192,
              28.602
            ],
            [
              77.2192,
              28.6036
            ],
            [
              77.2176,
              28.6036
            ],
            [
              77.2176,
              28.602
            ]
          ]
        ]
      },
      "properties": {
        "changeId": "6d562d18a73c4a05bb7a9a01649d6aca",
        "tileId": "S2_20240320_T3",
        "changeType": "Construction",
        "confidence": 0.99,
        "timestampT1": "2024-01-10T10.30.00Z",
        "timestampT2": "2024-03-20T10.30.00Z",
        "earliestObservation": "2024-03-20T10.30.00Z",
        "areaSqMeters": 27750.66990242907,
        "affectedPixels": 256,
        "processingNotes": "New structural signature: dNDBI=1.163, dGrad=0.055, CVA magnitude=0.626 | runner-up: Clearance=0.98",
        "confirmedByAnalyst": false,
        "rejectedByAnalyst": false,
        "analystNotes": "",
        "provenance": {
          "prov:wasGeneratedBy": "GeoSemanticSat-Engine-1.0.0-PROV",
          "prov:generatedAtTime": "2026-09-10T16.46.44Z",
          "prov:primarySource": "S2_20240320_T3"
        },
        "DeltaNDVI": -1.1879,
        "DeltaNDBI": 1.1635,
        "DeltaNDWI": 0.7663,
        "DeltaBSI": 1.055,
        "DeltaGradient": 0.055,
        "CvaMagnitude": 0.6259,
        "CvaTrajectoryRadians": 2.3567,
        "SceneDriftNDVI": -0.0232,
        "SceneDriftNDBI": 0.0304,
        "SceneDriftNDWI": 0.0338,
        "SceneDriftBSI": 0.0333,
        "MNDWI_T1": 0.0909,
        "MNDWI_T2": -0.3793
      }
    },
    {
      "type": "Feature",
      "geometry": {
        "type": "Polygon",
        "coordinates": [
          [
            [
              77.2064,
              28.6004
            ],
            [
              77.208,
              28.6004
            ],
            [
              77.208,
              28.602
            ],
            [
              77.2064,
              28.602
            ],
            [
              77.2064,
              28.6004
            ]
          ]
        ]
      },
      "properties": {
        "changeId": "75bd5d2daed84e16a69cedf4ce9d45b7",
        "tileId": "S2_20240320_T3",
        "changeType": "Construction",
        "confidence": 0.99,
        "timestampT1": "2024-01-10T10.30.00Z",
        "timestampT2": "2024-03-20T10.30.00Z",
        "earliestObservation": "2024-03-20T10.30.00Z",
        "areaSqMeters": 27751.083719273724,
        "affectedPixels": 256,
        "processingNotes": "New structural signature: dNDBI=1.154, dGrad=0.000, CVA magnitude=0.812 | runner-up: Clearance=0.98",
        "confirmedByAnalyst": false,
        "rejectedByAnalyst": false,
        "analystNotes": "",
        "provenance": {
          "prov:wasGeneratedBy": "GeoSemanticSat-Engine-1.0.0-PROV",
          "prov:generatedAtTime": "2026-09-10T16.46.44Z",
          "prov:primarySource": "S2_20240320_T3"
        },
        "DeltaNDVI": -1.2087,
        "DeltaNDBI": 1.1544,
        "DeltaNDWI": 1.0145,
        "DeltaBSI": 0.7578,
        "DeltaGradient": 0,
        "CvaMagnitude": 0.8121,
        "CvaTrajectoryRadians": 2.3695,
        "SceneDriftNDVI": -0.0232,
        "SceneDriftNDBI": 0.0304,
        "SceneDriftNDWI": 0.0338,
        "SceneDriftBSI": 0.0333,
        "MNDWI_T1": 0.0909,
        "MNDWI_T2": -0.1064
      }
    },
    {
      "type": "Feature",
      "geometry": {
        "type": "Polygon",
        "coordinates": [
          [
            [
              77.208,
              28.6004
            ],
            [
              77.20960000000001,
              28.6004
            ],
            [
              77.20960000000001,
              28.602
            ],
            [
              77.208,
              28.602
            ],
            [
              77.208,
              28.6004
            ]
          ]
        ]
      },
      "properties": {
        "changeId": "4d1791a9ca504a79adb9e29209385c9f",
        "tileId": "S2_20240320_T3",
        "changeType": "Construction",
        "confidence": 0.99,
        "timestampT1": "2024-01-10T10.30.00Z",
        "timestampT2": "2024-03-20T10.30.00Z",
        "earliestObservation": "2024-03-20T10.30.00Z",
        "areaSqMeters": 27751.08371949438,
        "affectedPixels": 256,
        "processingNotes": "New structural signature: dNDBI=1.154, dGrad=0.000, CVA magnitude=0.812 | runner-up: Clearance=0.98",
        "confirmedByAnalyst": false,
        "rejectedByAnalyst": false,
        "analystNotes": "",
        "provenance": {
          "prov:wasGeneratedBy": "GeoSemanticSat-Engine-1.0.0-PROV",
          "prov:generatedAtTime": "2026-09-10T16.46.44Z",
          "prov:primarySource": "S2_20240320_T3"
        },
        "DeltaNDVI": -1.2087,
        "DeltaNDBI": 1.1544,
        "DeltaNDWI": 1.0145,
        "DeltaBSI": 0.7578,
        "DeltaGradient": 0,
        "CvaMagnitude": 0.8121,
        "CvaTrajectoryRadians": 2.3695,
        "SceneDriftNDVI": -0.0232,
        "SceneDriftNDBI": 0.0304,
        "SceneDriftNDWI": 0.0338,
        "SceneDriftBSI": 0.0333,
        "MNDWI_T1": 0.0909,
        "MNDWI_T2": -0.1064
      }
    },
    {
      "type": "Feature",
      "geometry": {
        "type": "Polygon",
        "coordinates": [
          [
            [
              77.20320000000001,
              28.592399999999998
            ],
            [
              77.2048,
              28.592399999999998
            ],
            [
              77.2048,
              28.594
            ],
            [
              77.20320000000001,
              28.594
            ],
            [
              77.20320000000001,
              28.592399999999998
            ]
          ]
        ]
      },
      "properties": {
        "changeId": "d4bb4675d3d1478a86cb7aae83d09755",
        "tileId": "S2_20240320_T3",
        "changeType": "WaterExtentVariation",
        "confidence": 0.99,
        "timestampT1": "2024-01-10T10.30.00Z",
        "timestampT2": "2024-03-20T10.30.00Z",
        "earliestObservation": "2024-03-20T10.30.00Z",
        "areaSqMeters": 27753.152478430824,
        "affectedPixels": 192,
        "processingNotes": "Water expansion / inundation: dNDWI=1.566, MNDWI 0.09-\u003E0.93, CVA magnitude=0.673 | runner-up: Clearance=0.98",
        "confirmedByAnalyst": false,
        "rejectedByAnalyst": false,
        "analystNotes": "",
        "provenance": {
          "prov:wasGeneratedBy": "GeoSemanticSat-Engine-1.0.0-PROV",
          "prov:generatedAtTime": "2026-09-10T16.46.44Z",
          "prov:primarySource": "S2_20240320_T3"
        },
        "DeltaNDVI": -1.7333,
        "DeltaNDBI": 1.625,
        "DeltaNDWI": 1.5663,
        "DeltaBSI": 0.5486,
        "DeltaGradient": -0.0016,
        "CvaMagnitude": 0.6727,
        "CvaTrajectoryRadians": 2.3817,
        "SceneDriftNDVI": -0.0232,
        "SceneDriftNDBI": 0.0304,
        "SceneDriftNDWI": 0.0338,
        "SceneDriftBSI": 0.0333,
        "MNDWI_T1": 0.0909,
        "MNDWI_T2": 0.931
      }
    },
    {
      "type": "Feature",
      "geometry": {
        "type": "Polygon",
        "coordinates": [
          [
            [
              77.20320000000001,
              28.590799999999998
            ],
            [
              77.2048,
              28.590799999999998
            ],
            [
              77.2048,
              28.592399999999998
            ],
            [
              77.20320000000001,
              28.592399999999998
            ],
            [
              77.20320000000001,
              28.590799999999998
            ]
          ]
        ]
      },
      "properties": {
        "changeId": "eb67d39297084fcfa62a03049bf06eec",
        "tileId": "S2_20240320_T3",
        "changeType": "WaterExtentVariation",
        "confidence": 0.99,
        "timestampT1": "2024-01-10T10.30.00Z",
        "timestampT2": "2024-03-20T10.30.00Z",
        "earliestObservation": "2024-03-20T10.30.00Z",
        "areaSqMeters": 27753.566166989818,
        "affectedPixels": 192,
        "processingNotes": "Water expansion / inundation: dNDWI=1.566, MNDWI 0.09-\u003E0.93, CVA magnitude=0.673 | runner-up: Clearance=0.98",
        "confirmedByAnalyst": false,
        "rejectedByAnalyst": false,
        "analystNotes": "",
        "provenance": {
          "prov:wasGeneratedBy": "GeoSemanticSat-Engine-1.0.0-PROV",
          "prov:generatedAtTime": "2026-09-10T16.46.44Z",
          "prov:primarySource": "S2_20240320_T3"
        },
        "DeltaNDVI": -1.7333,
        "DeltaNDBI": 1.625,
        "DeltaNDWI": 1.5663,
        "DeltaBSI": 0.5486,
        "DeltaGradient": -0.0067,
        "CvaMagnitude": 0.6727,
        "CvaTrajectoryRadians": 2.3817,
        "SceneDriftNDVI": -0.0232,
        "SceneDriftNDBI": 0.0304,
        "SceneDriftNDWI": 0.0338,
        "SceneDriftBSI": 0.0333,
        "MNDWI_T1": 0.0909,
        "MNDWI_T2": 0.931
      }
    },
    {
      "type": "Feature",
      "geometry": {
        "type": "Polygon",
        "coordinates": [
          [
            [
              77.20320000000001,
              28.589199999999998
            ],
            [
              77.2048,
              28.589199999999998
            ],
            [
              77.2048,
              28.590799999999998
            ],
            [
              77.20320000000001,
              28.590799999999998
            ],
            [
              77.20320000000001,
              28.589199999999998
            ]
          ]
        ]
      },
      "properties": {
        "changeId": "ed3bd9282c174e7ea46c91c652ac6bf2",
        "tileId": "S2_20240320_T3",
        "changeType": "WaterExtentVariation",
        "confidence": 0.99,
        "timestampT1": "2024-01-10T10.30.00Z",
        "timestampT2": "2024-03-20T10.30.00Z",
        "earliestObservation": "2024-03-20T10.30.00Z",
        "areaSqMeters": 27753.97983168317,
        "affectedPixels": 192,
        "processingNotes": "Water expansion / inundation: dNDWI=0.800, MNDWI 0.09-\u003E0.51, CVA magnitude=0.366 | runner-up: Clearance=0.98",
        "confirmedByAnalyst": false,
        "rejectedByAnalyst": false,
        "analystNotes": "",
        "provenance": {
          "prov:wasGeneratedBy": "GeoSemanticSat-Engine-1.0.0-PROV",
          "prov:generatedAtTime": "2026-09-10T16.46.44Z",
          "prov:primarySource": "S2_20240320_T3"
        },
        "DeltaNDVI": -0.8783,
        "DeltaNDBI": 0.8277,
        "DeltaNDWI": 0.8,
        "DeltaBSI": 0.2909,
        "DeltaGradient": 0.0066,
        "CvaMagnitude": 0.3663,
        "CvaTrajectoryRadians": 2.3725,
        "SceneDriftNDVI": -0.0232,
        "SceneDriftNDBI": 0.0304,
        "SceneDriftNDWI": 0.0338,
        "SceneDriftBSI": 0.0333,
        "MNDWI_T1": 0.0909,
        "MNDWI_T2": 0.511
      }
    },
    {
      "type": "Feature",
      "geometry": {
        "type": "Polygon",
        "coordinates": [
          [
            [
              77.2064,
              28.6036
            ],
            [
              77.208,
              28.6036
            ],
            [
              77.208,
              28.6052
            ],
            [
              77.2064,
              28.6052
            ],
            [
              77.2064,
              28.6036
            ]
          ]
        ]
      },
      "properties": {
        "changeId": "8d2171dd4df840649624d1a4b2f414b6",
        "tileId": "S2_20240320_T3",
        "changeType": "WaterExtentVariation",
        "confidence": 0.886,
        "timestampT1": "2024-01-10T10.30.00Z",
        "timestampT2": "2024-03-20T10.30.00Z",
        "earliestObservation": "2024-03-20T10.30.00Z",
        "areaSqMeters": 27750.256063785877,
        "affectedPixels": 256,
        "processingNotes": "Water expansion / inundation: dNDWI=0.279, MNDWI 0.09-\u003E0.04, CVA magnitude=0.248",
        "confirmedByAnalyst": false,
        "rejectedByAnalyst": false,
        "analystNotes": "",
        "provenance": {
          "prov:wasGeneratedBy": "GeoSemanticSat-Engine-1.0.0-PROV",
          "prov:generatedAtTime": "2026-09-10T16.46.44Z",
          "prov:primarySource": "S2_20240320_T3"
        },
        "DeltaNDVI": -0.3196,
        "DeltaNDBI": 0.3114,
        "DeltaNDWI": 0.279,
        "DeltaBSI": 0.2144,
        "DeltaGradient": 0.175,
        "CvaMagnitude": 0.248,
        "CvaTrajectoryRadians": 2.3315,
        "SceneDriftNDVI": -0.0232,
        "SceneDriftNDBI": 0.0304,
        "SceneDriftNDWI": 0.0338,
        "SceneDriftBSI": 0.0333,
        "MNDWI_T1": 0.0909,
        "MNDWI_T2": 0.0416
      }
    },
    {
      "type": "Feature",
      "geometry": {
        "type": "Polygon",
        "coordinates": [
          [
            [
              77.208,
              28.6036
            ],
            [
              77.20960000000001,
              28.6036
            ],
            [
              77.20960000000001,
              28.6052
            ],
            [
              77.208,
              28.6052
            ],
            [
              77.208,
              28.6036
            ]
          ]
        ]
      },
      "properties": {
        "changeId": "98e5c1d2c8ed4f6daf7f6853a35a846e",
        "tileId": "S2_20240320_T3",
        "changeType": "WaterExtentVariation",
        "confidence": 0.886,
        "timestampT1": "2024-01-10T10.30.00Z",
        "timestampT2": "2024-03-20T10.30.00Z",
        "earliestObservation": "2024-03-20T10.30.00Z",
        "areaSqMeters": 27750.25606400653,
        "affectedPixels": 256,
        "processingNotes": "Water expansion / inundation: dNDWI=0.279, MNDWI 0.09-\u003E0.04, CVA magnitude=0.248",
        "confirmedByAnalyst": false,
        "rejectedByAnalyst": false,
        "analystNotes": "",
        "provenance": {
          "prov:wasGeneratedBy": "GeoSemanticSat-Engine-1.0.0-PROV",
          "prov:generatedAtTime": "2026-09-10T16.46.44Z",
          "prov:primarySource": "S2_20240320_T3"
        },
        "DeltaNDVI": -0.3196,
        "DeltaNDBI": 0.3114,
        "DeltaNDWI": 0.279,
        "DeltaBSI": 0.2144,
        "DeltaGradient": 0.175,
        "CvaMagnitude": 0.248,
        "CvaTrajectoryRadians": 2.3315,
        "SceneDriftNDVI": -0.0232,
        "SceneDriftNDBI": 0.0304,
        "SceneDriftNDWI": 0.0338,
        "SceneDriftBSI": 0.0333,
        "MNDWI_T1": 0.0909,
        "MNDWI_T2": 0.0416
      }
    },
    {
      "type": "Feature",
      "geometry": {
        "type": "Polygon",
        "coordinates": [
          [
            [
              77.2048,
              28.602
            ],
            [
              77.2064,
              28.602
            ],
            [
              77.2064,
              28.6036
            ],
            [
              77.2048,
              28.6036
            ],
            [
              77.2048,
              28.602
            ]
          ]
        ]
      },
      "properties": {
        "changeId": "a3c4cb3e0b0f4a3eaca043edc1199107",
        "tileId": "S2_20240320_T3",
        "changeType": "WaterExtentVariation",
        "confidence": 0.886,
        "timestampT1": "2024-01-10T10.30.00Z",
        "timestampT2": "2024-03-20T10.30.00Z",
        "earliestObservation": "2024-03-20T10.30.00Z",
        "areaSqMeters": 27750.669902649726,
        "affectedPixels": 256,
        "processingNotes": "Water expansion / inundation: dNDWI=0.279, MNDWI 0.09-\u003E0.04, CVA magnitude=0.248",
        "confirmedByAnalyst": false,
        "rejectedByAnalyst": false,
        "analystNotes": "",
        "provenance": {
          "prov:wasGeneratedBy": "GeoSemanticSat-Engine-1.0.0-PROV",
          "prov:generatedAtTime": "2026-09-10T16.46.44Z",
          "prov:primarySource": "S2_20240320_T3"
        },
        "DeltaNDVI": -0.3196,
        "DeltaNDBI": 0.3114,
        "DeltaNDWI": 0.279,
        "DeltaBSI": 0.2144,
        "DeltaGradient": 0.175,
        "CvaMagnitude": 0.248,
        "CvaTrajectoryRadians": 2.3315,
        "SceneDriftNDVI": -0.0232,
        "SceneDriftNDBI": 0.0304,
        "SceneDriftNDWI": 0.0338,
        "SceneDriftBSI": 0.0333,
        "MNDWI_T1": 0.0909,
        "MNDWI_T2": 0.0416
      }
    },
    {
      "type": "Feature",
      "geometry": {
        "type": "Polygon",
        "coordinates": [
          [
            [
              77.20960000000001,
              28.602
            ],
            [
              77.2112,
              28.602
            ],
            [
              77.2112,
              28.6036
            ],
            [
              77.20960000000001,
              28.6036
            ],
            [
              77.20960000000001,
              28.602
            ]
          ]
        ]
      },
      "properties": {
        "changeId": "dae6c047795246da8df299398a9ddb68",
        "tileId": "S2_20240320_T3",
        "changeType": "WaterExtentVariation",
        "confidence": 0.886,
        "timestampT1": "2024-01-10T10.30.00Z",
        "timestampT2": "2024-03-20T10.30.00Z",
        "earliestObservation": "2024-03-20T10.30.00Z",
        "areaSqMeters": 27750.669902649726,
        "affectedPixels": 256,
        "processingNotes": "Water expansion / inundation: dNDWI=0.279, MNDWI 0.09-\u003E0.04, CVA magnitude=0.248",
        "confirmedByAnalyst": false,
        "rejectedByAnalyst": false,
        "analystNotes": "",
        "provenance": {
          "prov:wasGeneratedBy": "GeoSemanticSat-Engine-1.0.0-PROV",
          "prov:generatedAtTime": "2026-09-10T16.46.44Z",
          "prov:primarySource": "S2_20240320_T3"
        },
        "DeltaNDVI": -0.3196,
        "DeltaNDBI": 0.3114,
        "DeltaNDWI": 0.279,
        "DeltaBSI": 0.2144,
        "DeltaGradient": 0.175,
        "CvaMagnitude": 0.248,
        "CvaTrajectoryRadians": 2.3315,
        "SceneDriftNDVI": -0.0232,
        "SceneDriftNDBI": 0.0304,
        "SceneDriftNDWI": 0.0338,
        "SceneDriftBSI": 0.0333,
        "MNDWI_T1": 0.0909,
        "MNDWI_T2": 0.0416
      }
    },
    {
      "type": "Feature",
      "geometry": {
        "type": "Polygon",
        "coordinates": [
          [
            [
              77.2048,
              28.6004
            ],
            [
              77.2064,
              28.6004
            ],
            [
              77.2064,
              28.602
            ],
            [
              77.2048,
              28.602
            ],
            [
              77.2048,
              28.6004
            ]
          ]
        ]
      },
      "properties": {
        "changeId": "ef679cfa2aba44e98c8fc1d81a253797",
        "tileId": "S2_20240320_T3",
        "changeType": "WaterExtentVariation",
        "confidence": 0.886,
        "timestampT1": "2024-01-10T10.30.00Z",
        "timestampT2": "2024-03-20T10.30.00Z",
        "earliestObservation": "2024-03-20T10.30.00Z",
        "areaSqMeters": 27751.08371949438,
        "affectedPixels": 256,
        "processingNotes": "Water expansion / inundation: dNDWI=0.279, MNDWI 0.09-\u003E0.04, CVA magnitude=0.248",
        "confirmedByAnalyst": false,
        "rejectedByAnalyst": false,
        "analystNotes": "",
        "provenance": {
          "prov:wasGeneratedBy": "GeoSemanticSat-Engine-1.0.0-PROV",
          "prov:generatedAtTime": "2026-09-10T16.46.44Z",
          "prov:primarySource": "S2_20240320_T3"
        },
        "DeltaNDVI": -0.3196,
        "DeltaNDBI": 0.3114,
        "DeltaNDWI": 0.279,
        "DeltaBSI": 0.2144,
        "DeltaGradient": 0.175,
        "CvaMagnitude": 0.248,
        "CvaTrajectoryRadians": 2.3315,
        "SceneDriftNDVI": -0.0232,
        "SceneDriftNDBI": 0.0304,
        "SceneDriftNDWI": 0.0338,
        "SceneDriftBSI": 0.0333,
        "MNDWI_T1": 0.0909,
        "MNDWI_T2": 0.0416
      }
    },
    {
      "type": "Feature",
      "geometry": {
        "type": "Polygon",
        "coordinates": [
          [
            [
              77.20960000000001,
              28.6004
            ],
            [
              77.2112,
              28.6004
            ],
            [
              77.2112,
              28.602
            ],
            [
              77.20960000000001,
              28.602
            ],
            [
              77.20960000000001,
              28.6004
            ]
          ]
        ]
      },
      "properties": {
        "changeId": "57b04f34b20645eeb3d6bfbb8dd7db66",
        "tileId": "S2_20240320_T3",
        "changeType": "WaterExtentVariation",
        "confidence": 0.886,
        "timestampT1": "2024-01-10T10.30.00Z",
        "timestampT2": "2024-03-20T10.30.00Z",
        "earliestObservation": "2024-03-20T10.30.00Z",
        "areaSqMeters": 27751.08371949438,
        "affectedPixels": 256,
        "processingNotes": "Water expansion / inundation: dNDWI=0.279, MNDWI 0.09-\u003E0.04, CVA magnitude=0.248",
        "confirmedByAnalyst": false,
        "rejectedByAnalyst": false,
        "analystNotes": "",
        "provenance": {
          "prov:wasGeneratedBy": "GeoSemanticSat-Engine-1.0.0-PROV",
          "prov:generatedAtTime": "2026-09-10T16.46.44Z",
          "prov:primarySource": "S2_20240320_T3"
        },
        "DeltaNDVI": -0.3196,
        "DeltaNDBI": 0.3114,
        "DeltaNDWI": 0.279,
        "DeltaBSI": 0.2144,
        "DeltaGradient": 0.175,
        "CvaMagnitude": 0.248,
        "CvaTrajectoryRadians": 2.3315,
        "SceneDriftNDVI": -0.0232,
        "SceneDriftNDBI": 0.0304,
        "SceneDriftNDWI": 0.0338,
        "SceneDriftBSI": 0.0333,
        "MNDWI_T1": 0.0909,
        "MNDWI_T2": 0.0416
      }
    },
    {
      "type": "Feature",
      "geometry": {
        "type": "Polygon",
        "coordinates": [
          [
            [
              77.2064,
              28.5988
            ],
            [
              77.208,
              28.5988
            ],
            [
              77.208,
              28.6004
            ],
            [
              77.2064,
              28.6004
            ],
            [
              77.2064,
              28.5988
            ]
          ]
        ]
      },
      "properties": {
        "changeId": "4ef839746e7e48f0b73761f292e4d2b7",
        "tileId": "S2_20240320_T3",
        "changeType": "WaterExtentVariation",
        "confidence": 0.886,
        "timestampT1": "2024-01-10T10.30.00Z",
        "timestampT2": "2024-03-20T10.30.00Z",
        "earliestObservation": "2024-03-20T10.30.00Z",
        "areaSqMeters": 27751.497514131916,
        "affectedPixels": 256,
        "processingNotes": "Water expansion / inundation: dNDWI=0.279, MNDWI 0.09-\u003E0.04, CVA magnitude=0.248",
        "confirmedByAnalyst": false,
        "rejectedByAnalyst": false,
        "analystNotes": "",
        "provenance": {
          "prov:wasGeneratedBy": "GeoSemanticSat-Engine-1.0.0-PROV",
          "prov:generatedAtTime": "2026-09-10T16.46.44Z",
          "prov:primarySource": "S2_20240320_T3"
        },
        "DeltaNDVI": -0.3196,
        "DeltaNDBI": 0.3114,
        "DeltaNDWI": 0.279,
        "DeltaBSI": 0.2144,
        "DeltaGradient": 0.175,
        "CvaMagnitude": 0.248,
        "CvaTrajectoryRadians": 2.3315,
        "SceneDriftNDVI": -0.0232,
        "SceneDriftNDBI": 0.0304,
        "SceneDriftNDWI": 0.0338,
        "SceneDriftBSI": 0.0333,
        "MNDWI_T1": 0.0909,
        "MNDWI_T2": 0.0416
      }
    },
    {
      "type": "Feature",
      "geometry": {
        "type": "Polygon",
        "coordinates": [
          [
            [
              77.208,
              28.5988
            ],
            [
              77.20960000000001,
              28.5988
            ],
            [
              77.20960000000001,
              28.6004
            ],
            [
              77.208,
              28.6004
            ],
            [
              77.208,
              28.5988
            ]
          ]
        ]
      },
      "properties": {
        "changeId": "c81627c973e3418d8b52f65fd69ec608",
        "tileId": "S2_20240320_T3",
        "changeType": "WaterExtentVariation",
        "confidence": 0.886,
        "timestampT1": "2024-01-10T10.30.00Z",
        "timestampT2": "2024-03-20T10.30.00Z",
        "earliestObservation": "2024-03-20T10.30.00Z",
        "areaSqMeters": 27751.497514352577,
        "affectedPixels": 256,
        "processingNotes": "Water expansion / inundation: dNDWI=0.279, MNDWI 0.09-\u003E0.04, CVA magnitude=0.248",
        "confirmedByAnalyst": false,
        "rejectedByAnalyst": false,
        "analystNotes": "",
        "provenance": {
          "prov:wasGeneratedBy": "GeoSemanticSat-Engine-1.0.0-PROV",
          "prov:generatedAtTime": "2026-09-10T16.46.44Z",
          "prov:primarySource": "S2_20240320_T3"
        },
        "DeltaNDVI": -0.3196,
        "DeltaNDBI": 0.3114,
        "DeltaNDWI": 0.279,
        "DeltaBSI": 0.2144,
        "DeltaGradient": 0.175,
        "CvaMagnitude": 0.248,
        "CvaTrajectoryRadians": 2.3315,
        "SceneDriftNDVI": -0.0232,
        "SceneDriftNDBI": 0.0304,
        "SceneDriftNDWI": 0.0338,
        "SceneDriftBSI": 0.0333,
        "MNDWI_T1": 0.0909,
        "MNDWI_T2": 0.0416
      }
    },
    {
      "type": "Feature",
      "geometry": {
        "type": "Polygon",
        "coordinates": [
          [
            [
              77.2048,
              28.592399999999998
            ],
            [
              77.2064,
              28.592399999999998
            ],
            [
              77.2064,
              28.594
            ],
            [
              77.2048,
              28.594
            ],
            [
              77.2048,
              28.592399999999998
            ]
          ]
        ]
      },
      "properties": {
        "changeId": "53b5b55f3ceb4120b1bd9a17bb1efbd4",
        "tileId": "S2_20240320_T3",
        "changeType": "WaterExtentVariation",
        "confidence": 0.8311,
        "timestampT1": "2024-01-10T10.30.00Z",
        "timestampT2": "2024-03-20T10.30.00Z",
        "earliestObservation": "2024-03-20T10.30.00Z",
        "areaSqMeters": 27753.152478430824,
        "affectedPixels": 256,
        "processingNotes": "Water expansion / inundation: dNDWI=0.225, MNDWI 0.09-\u003E0.20, CVA magnitude=0.137",
        "confirmedByAnalyst": false,
        "rejectedByAnalyst": false,
        "analystNotes": "",
        "provenance": {
          "prov:wasGeneratedBy": "GeoSemanticSat-Engine-1.0.0-PROV",
          "prov:generatedAtTime": "2026-09-10T16.46.44Z",
          "prov:primarySource": "S2_20240320_T3"
        },
        "DeltaNDVI": -0.237,
        "DeltaNDBI": 0.2297,
        "DeltaNDWI": 0.2254,
        "DeltaBSI": 0.0977,
        "DeltaGradient": 0.0103,
        "CvaMagnitude": 0.1366,
        "CvaTrajectoryRadians": 2.3202,
        "SceneDriftNDVI": -0.0232,
        "SceneDriftNDBI": 0.0304,
        "SceneDriftNDWI": 0.0338,
        "SceneDriftBSI": 0.0333,
        "MNDWI_T1": 0.0909,
        "MNDWI_T2": 0.1959
      }
    },
    {
      "type": "Feature",
      "geometry": {
        "type": "Polygon",
        "coordinates": [
          [
            [
              77.2048,
              28.590799999999998
            ],
            [
              77.2064,
              28.590799999999998
            ],
            [
              77.2064,
              28.592399999999998
            ],
            [
              77.2048,
              28.592399999999998
            ],
            [
              77.2048,
              28.590799999999998
            ]
          ]
        ]
      },
      "properties": {
        "changeId": "238ab21ccd9543fb94edb96b23fe40d8",
        "tileId": "S2_20240320_T3",
        "changeType": "WaterExtentVariation",
        "confidence": 0.8311,
        "timestampT1": "2024-01-10T10.30.00Z",
        "timestampT2": "2024-03-20T10.30.00Z",
        "earliestObservation": "2024-03-20T10.30.00Z",
        "areaSqMeters": 27753.566166989818,
        "affectedPixels": 256,
        "processingNotes": "Water expansion / inundation: dNDWI=0.225, MNDWI 0.09-\u003E0.20, CVA magnitude=0.137",
        "confirmedByAnalyst": false,
        "rejectedByAnalyst": false,
        "analystNotes": "",
        "provenance": {
          "prov:wasGeneratedBy": "GeoSemanticSat-Engine-1.0.0-PROV",
          "prov:generatedAtTime": "2026-09-10T16.46.44Z",
          "prov:primarySource": "S2_20240320_T3"
        },
        "DeltaNDVI": -0.237,
        "DeltaNDBI": 0.2297,
        "DeltaNDWI": 0.2254,
        "DeltaBSI": 0.0977,
        "DeltaGradient": 0.01,
        "CvaMagnitude": 0.1366,
        "CvaTrajectoryRadians": 2.3202,
        "SceneDriftNDVI": -0.0232,
        "SceneDriftNDBI": 0.0304,
        "SceneDriftNDWI": 0.0338,
        "SceneDriftBSI": 0.0333,
        "MNDWI_T1": 0.0909,
        "MNDWI_T2": 0.1959
      }
    }
  ]
}